{
  "type": "FeatureCollection",
  "features": [
    {
      "type": "Feature",
      "properties": {
        "norad_id": 2807,
        "name": "OPS 7218 (TRANSIT 16)",
        "group": "nnss",
        "lat": 44.64982167976845,
        "lon": 173.24041125619053,
        "alt_km": 1056.9728837417488,
        "timestamp": "2025-12-26T09:30:53.906353+00:00",
        "meta_object_name": "OPS 7218 (TRANSIT 16)",
        "meta_object_id": "1967-048A",
        "meta_epoch": "2025-12-26T00:13:29.128224",
        "meta_mean_motion": 13.50724931,
        "meta_eccentricity": 0.0022138,
        "meta_inclination": 89.6734,
        "meta_ra_of_asc_node": 353.576,
        "meta_arg_of_pericenter": 78.7775,
        "meta_mean_anomaly": 335.1226,
        "meta_ephemeris_type": 0,
        "meta_classification_type": "U",
        "meta_norad_cat_id": 2807,
        "meta_element_set_no": 999,
        "meta_rev_at_epoch": 88455,
        "meta_bstar": 0.00013824,
        "meta_mean_motion_dot": 9.9e-07,
        "meta_mean_motion_ddot": 0,
        "tle_line1": "1 02807U 67048A   25360.00936491  .00000099  00000+0  13824-3 0  9998",
        "tle_line2": "2 02807  89.6734 353.5760 0022138  78.7775 335.1226 13.50724931884559"
      },
      "geometry": {
        "type": "Point",
        "coordinates": [
          173.24041125619053,
          44.64982167976845
        ]
      }
    },
    {
      "type": "Feature",
      "properties": {
        "norad_id": 2965,
        "name": "OPS 4947 (TRANSIT 17)",
        "group": "nnss",
        "lat": -26.070329943952228,
        "lon": 23.02540853570772,
        "alt_km": 1092.0585376766849,
        "timestamp": "2025-12-26T09:30:53.906376+00:00",
        "meta_object_name": "OPS 4947 (TRANSIT 17)",
        "meta_object_id": "1967-092A",
        "meta_epoch": "2025-12-26T00:51:43.162272",
        "meta_mean_motion": 13.53457055,
        "meta_eccentricity": 0.0047203,
        "meta_inclination": 89.2485,
        "meta_ra_of_asc_node": 23.4208,
        "meta_arg_of_pericenter": 195.1171,
        "meta_mean_anomaly": 182.9002,
        "meta_ephemeris_type": 0,
        "meta_classification_type": "U",
        "meta_norad_cat_id": 2965,
        "meta_element_set_no": 999,
        "meta_rev_at_epoch": 87277,
        "meta_bstar": 0.00018182,
        "meta_mean_motion_dot": 1.34e-06,
        "meta_mean_motion_ddot": 0,
        "tle_line1": "1 02965U 67092A   25360.03591623  .00000134  00000+0  18182-3 0  9991",
        "tle_line2": "2 02965  89.2485  23.4208 0047203 195.1171 182.9002 13.53457055872771"
      },
      "geometry": {
        "type": "Point",
        "coordinates": [
          23.02540853570772,
          -26.070329943952228
        ]
      }
    },
    {
      "type": "Feature",
      "properties": {
        "norad_id": 3133,
        "name": "OPS 7034 (TRANSIT 18)",
        "group": "nnss",
        "lat": 29.19920327752423,
        "lon": -86.33797859402726,
        "alt_km": 1075.0077694887877,
        "timestamp": "2025-12-26T09:30:53.906390+00:00",
        "meta_object_name": "OPS 7034 (TRANSIT 18)",
        "meta_object_id": "1968-012A",
        "meta_epoch": "2025-12-26T04:51:43.903008",
        "meta_mean_motion": 13.51568864,
        "meta_eccentricity": 0.0075059,
        "meta_inclination": 90.0285,
        "meta_ra_of_asc_node": 273.6774,
        "meta_arg_of_pericenter": 130.4949,
        "meta_mean_anomaly": 36.9254,
        "meta_ephemeris_type": 0,
        "meta_classification_type": "U",
        "meta_norad_cat_id": 3133,
        "meta_element_set_no": 999,
        "meta_rev_at_epoch": 57100,
        "meta_bstar": 0.00020611,
        "meta_mean_motion_dot": 1.47e-06,
        "meta_mean_motion_ddot": 0,
        "tle_line1": "1 03133U 68012A   25360.20259147  .00000147  00000+0  20611-3 0  9997",
        "tle_line2": "2 03133  90.0285 273.6774 0075059 130.4949  36.9254 13.51568864571007"
      },
      "geometry": {
        "type": "Point",
        "coordinates": [
          -86.33797859402726,
          29.19920327752423
        ]
      }
    },
    {
      "type": "Feature",
      "properties": {
        "norad_id": 4507,
        "name": "NNSS 19 (TRANSIT 19)",
        "group": "nnss",
        "lat": -8.903548728210566,
        "lon": -125.4562234197147,
        "alt_km": 1086.545293176192,
        "timestamp": "2025-12-26T09:30:53.906403+00:00",
        "meta_object_name": "NNSS 19 (TRANSIT 19)",
        "meta_object_id": "1970-067A",
        "meta_epoch": "2025-12-26T02:27:02.780064",
        "meta_mean_motion": 13.51317818,
        "meta_eccentricity": 0.0170217,
        "meta_inclination": 90.0047,
        "meta_ra_of_asc_node": 234.5429,
        "meta_arg_of_pericenter": 254.2612,
        "meta_mean_anomaly": 103.9709,
        "meta_ephemeris_type": 0,
        "meta_classification_type": "U",
        "meta_norad_cat_id": 4507,
        "meta_element_set_no": 999,
        "meta_rev_at_epoch": 72402,
        "meta_bstar": 0.00012532,
        "meta_mean_motion_dot": 9.7e-07,
        "meta_mean_motion_ddot": 0,
        "tle_line1": "1 04507U 70067A   25360.10211551  .00000097  00000+0  12532-3 0  9999",
        "tle_line2": "2 04507  90.0047 234.5429 0170217 254.2612 103.9709 13.51317818724029"
      },
      "geometry": {
        "type": "Point",
        "coordinates": [
          -125.4562234197147,
          -8.903548728210566
        ]
      }
    },
    {
      "type": "Feature",
      "properties": {
        "norad_id": 6909,
        "name": "NNSS 20 (TRANSIT 20)",
        "group": "nnss",
        "lat": -31.97700463691164,
        "lon": -105.24042195078967,
        "alt_km": 959.0065178765908,
        "timestamp": "2025-12-26T09:30:53.906414+00:00",
        "meta_object_name": "NNSS 20 (TRANSIT 20)",
        "meta_object_id": "1973-081A",
        "meta_epoch": "2025-12-26T02:39:49.072032",
        "meta_mean_motion": 13.71441274,
        "meta_eccentricity": 0.0156065,
        "meta_inclination": 89.8559,
        "meta_ra_of_asc_node": 254.8539,
        "meta_arg_of_pericenter": 38.6786,
        "meta_mean_anomaly": 322.5431,
        "meta_ephemeris_type": 0,
        "meta_classification_type": "U",
        "meta_norad_cat_id": 6909,
        "meta_element_set_no": 999,
        "meta_rev_at_epoch": 80544,
        "meta_bstar": 0.00026552,
        "meta_mean_motion_dot": 2.71e-06,
        "meta_mean_motion_ddot": 0,
        "tle_line1": "1 06909U 73081A   25360.11098463  .00000271  00000+0  26552-3 0  9993",
        "tle_line2": "2 06909  89.8559 254.8539 0156065  38.6786 322.5431 13.71441274805442"
      },
      "geometry": {
        "type": "Point",
        "coordinates": [
          -105.24042195078967,
          -31.97700463691164
        ]
      }
    },
    {
      "type": "Feature",
      "properties": {
        "norad_id": 10457,
        "name": "TRANSAT",
        "group": "nnss",
        "lat": -58.21131987982445,
        "lon": -101.31757060743158,
        "alt_km": 1082.3355707634128,
        "timestamp": "2025-12-26T09:30:53.906426+00:00",
        "meta_object_name": "TRANSAT",
        "meta_object_id": "1977-106A",
        "meta_epoch": "2025-12-26T03:19:00.535296",
        "meta_mean_motion": 13.4894565,
        "meta_eccentricity": 0.0026593,
        "meta_inclination": 89.6474,
        "meta_ra_of_asc_node": 78.1223,
        "meta_arg_of_pericenter": 151.5933,
        "meta_mean_anomaly": 272.8478,
        "meta_ephemeris_type": 0,
        "meta_classification_type": "U",
        "meta_norad_cat_id": 10457,
        "meta_element_set_no": 999,
        "meta_rev_at_epoch": 36924,
        "meta_bstar": 0.00011626,
        "meta_mean_motion_dot": 8.3e-07,
        "meta_mean_motion_ddot": 0,
        "tle_line1": "1 10457U 77106A   25360.13820064  .00000083  00000+0  11626-3 0  9997",
        "tle_line2": "2 10457  89.6474  78.1223 0026593 151.5933 272.8478 13.48945650369249"
      },
      "geometry": {
        "type": "Point",
        "coordinates": [
          -101.31757060743158,
          -58.21131987982445
        ]
      }
    },
    {
      "type": "Feature",
      "properties": {
        "norad_id": 12458,
        "name": "NOVA 1",
        "group": "nnss",
        "lat": -40.983873498231716,
        "lon": 91.06384929693048,
        "alt_km": 1183.0650831035591,
        "timestamp": "2025-12-26T09:30:53.906437+00:00",
        "meta_object_name": "NOVA 1",
        "meta_object_id": "1981-044A",
        "meta_epoch": "2025-12-26T04:23:31.257888",
        "meta_mean_motion": 13.23279937,
        "meta_eccentricity": 0.0015692,
        "meta_inclination": 89.8525,
        "meta_ra_of_asc_node": 91.1951,
        "meta_arg_of_pericenter": 70.9382,
        "meta_mean_anomaly": 312.0594,
        "meta_ephemeris_type": 0,
        "meta_classification_type": "U",
        "meta_norad_cat_id": 12458,
        "meta_element_set_no": 999,
        "meta_rev_at_epoch": 15364,
        "meta_bstar": 0.00011445,
        "meta_mean_motion_dot": 5.8e-07,
        "meta_mean_motion_ddot": 0,
        "tle_line1": "1 12458U 81044A   25360.18300067  .00000058  00000+0  11445-3 0  9998",
        "tle_line2": "2 12458  89.8525  91.1951 0015692  70.9382 312.0594 13.23279937153646"
      },
      "geometry": {
        "type": "Point",
        "coordinates": [
          91.06384929693048,
          -40.983873498231716
        ]
      }
    }
  ]
}